SL-14 R/B               
1 21423U 91042B   26054.91488320  .00000436  00000+0  52217-4 0  9993
2 21423  82.4899 233.1013 0015598 288.0674  71.8840 14.81813744851036
ERS-1                   
1 21574U 91050A   26055.28165548  .00000304  00000+0  11201-3 0  9995
2 21574  98.7891  73.1791 0031008 241.0741 118.7335 14.39437356813805
ARIANE 40 R/B           
1 21610U 91050F   26055.15646034  .00000254  00000+0  88633-4 0  9994
2 21610  98.2043 107.8990 0004330 110.4443 249.7213 14.42882431817044
INTERCOSMOS 25          
1 21819U 91086A   26055.20074776  .00001337  00000+0  25626-3 0  9993
2 21819  82.6073 318.1598 1487092 145.9899 224.6211 12.11956560495057
SL-8 R/B                
1 21876U 92008B   26055.13435153  .00000015  00000+0 -83230-6 0  9994
2 21876  82.9237 277.8639 0034817 170.5437 303.1877 13.75969954707550
SL-8 R/B                
1 21938U 92020B   26055.30662576  .00000087  00000+0  75113-4 0  9994
2 21938  82.9344 163.6949 0028286 337.5065  75.8474 13.75547757699299
USA 81                  
1 21949U 92023A   26055.24609866  .00000182  00000+0  60172-4 0  9990
2 21949  85.0109 139.1945 0002735  89.3495 270.8011 14.32362926 92869
COSMOS 2219             
1 22219U 92076A   26055.29295354  .00000358  00000+0  21259-3 0  9994
2 22219  71.0596  46.0729 0019627 224.9401 135.0134 14.14083272716486
SL-16 R/B               
1 22220U 92076B   26054.87679991  .00000240  00000+0  14347-3 0  9992
2 22220  70.9983 217.4687 0010939 121.7327  30.0448 14.16855882719875
COSMOS 2221             
1 22236U 92080A   26055.12778128  .00001675  00000+0  14634-3 0  9997
2 22236  82.5031 292.0723 0012993 235.6236 124.3758 14.96142852778769
SL-16 R/B               
1 22285U 92093B   26055.24151472  .00000177  00000+0  11525-3 0  9997
2 22285  71.0225  32.4957 0005914 308.2161  51.8428 14.15448681711254
COSMOS 2228             
1 22286U 92094A   26055.28673323  .00002424  00000+0  20719-3 0  9999
2 22286  82.5147 250.1457 0017781 351.7918   8.3011 14.97117448774053
