CCSDS_OMM_VERS = 2.0
CREATION_DATE  = 
ORIGINATOR     = 

OBJECT_NAME    = SL-14 R/B
OBJECT_ID      = 1991-042B
CENTER_NAME    = EARTH
REF_FRAME      = TEME
TIME_SYSTEM    = UTC
MEAN_ELEMENT_THEORY = SGP/SGP4

EPOCH          = 2026-02-23T21:57:25.908480
MEAN_MOTION    = 14.81813744
ECCENTRICITY   = .0015598
INCLINATION    = 82.4899
RA_OF_ASC_NODE = 233.1013
ARG_OF_PERICENTER = 288.0674
MEAN_ANOMALY   = 71.8840

EPHEMERIS_TYPE = 0
CLASSIFICATION_TYPE = U
NORAD_CAT_ID   = 21423
ELEMENT_SET_NO = 999
REV_AT_EPOCH   = 85103
BSTAR          = .52216918E-4
MEAN_MOTION_DOT = .436E-5
MEAN_MOTION_DDOT = 0

CCSDS_OMM_VERS = 2.0
CREATION_DATE  = 
ORIGINATOR     = 

OBJECT_NAME    = ERS-1
OBJECT_ID      = 1991-050A
CENTER_NAME    = EARTH
REF_FRAME      = TEME
TIME_SYSTEM    = UTC
MEAN_ELEMENT_THEORY = SGP/SGP4

EPOCH          = 2026-02-24T06:45:35.033472
MEAN_MOTION    = 14.39437356
ECCENTRICITY   = .00310084
INCLINATION    = 98.7891
RA_OF_ASC_NODE = 73.1791
ARG_OF_PERICENTER = 241.0741
MEAN_ANOMALY   = 118.7335

EPHEMERIS_TYPE = 0
CLASSIFICATION_TYPE = U
NORAD_CAT_ID   = 21574
ELEMENT_SET_NO = 999
REV_AT_EPOCH   = 81380
BSTAR          = .11200543E-3
MEAN_MOTION_DOT = .304E-5
MEAN_MOTION_DDOT = 0

CCSDS_OMM_VERS = 2.0
CREATION_DATE  = 
ORIGINATOR     = 

OBJECT_NAME    = ARIANE 40 R/B
OBJECT_ID      = 1991-050F
CENTER_NAME    = EARTH
REF_FRAME      = TEME
TIME_SYSTEM    = UTC
MEAN_ELEMENT_THEORY = SGP/SGP4

EPOCH          = 2026-02-24T03:45:18.173376
MEAN_MOTION    = 14.42882431
ECCENTRICITY   = .00043306
INCLINATION    = 98.2043
RA_OF_ASC_NODE = 107.8990
ARG_OF_PERICENTER = 110.4443
MEAN_ANOMALY   = 249.7213

EPHEMERIS_TYPE = 0
CLASSIFICATION_TYPE = U
NORAD_CAT_ID   = 21610
ELEMENT_SET_NO = 999
REV_AT_EPOCH   = 81704
BSTAR          = .88632621E-4
MEAN_MOTION_DOT = .254E-5
MEAN_MOTION_DDOT = 0

CCSDS_OMM_VERS = 2.0
CREATION_DATE  = 
ORIGINATOR     = 

OBJECT_NAME    = INTERCOSMOS 25
OBJECT_ID      = 1991-086A
CENTER_NAME    = EARTH
REF_FRAME      = TEME
TIME_SYSTEM    = UTC
MEAN_ELEMENT_THEORY = SGP/SGP4

EPOCH          = 2026-02-24T04:49:04.606464
MEAN_MOTION    = 12.11956560
ECCENTRICITY   = .14870928
INCLINATION    = 82.6073
RA_OF_ASC_NODE = 318.1598
ARG_OF_PERICENTER = 145.9899
MEAN_ANOMALY   = 224.6211

EPHEMERIS_TYPE = 0
CLASSIFICATION_TYPE = U
NORAD_CAT_ID   = 21819
ELEMENT_SET_NO = 999
REV_AT_EPOCH   = 49505
BSTAR          = .25626215E-3
MEAN_MOTION_DOT = .1337E-4
MEAN_MOTION_DDOT = 0

CCSDS_OMM_VERS = 2.0
CREATION_DATE  = 
ORIGINATOR     = 

OBJECT_NAME    = SL-8 R/B
OBJECT_ID      = 1992-008B
CENTER_NAME    = EARTH
REF_FRAME      = TEME
TIME_SYSTEM    = UTC
MEAN_ELEMENT_THEORY = SGP/SGP4

EPOCH          = 2026-02-24T03:13:27.972192
MEAN_MOTION    = 13.75969954
ECCENTRICITY   = .00348176
INCLINATION    = 82.9237
RA_OF_ASC_NODE = 277.8639
ARG_OF_PERICENTER = 170.5437
MEAN_ANOMALY   = 303.1877

EPHEMERIS_TYPE = 0
CLASSIFICATION_TYPE = U
NORAD_CAT_ID   = 21876
ELEMENT_SET_NO = 999
REV_AT_EPOCH   = 70755
BSTAR          = -.832305E-6
MEAN_MOTION_DOT = .15E-6
MEAN_MOTION_DDOT = 0

CCSDS_OMM_VERS = 2.0
CREATION_DATE  = 
ORIGINATOR     = 

OBJECT_NAME    = SL-8 R/B
OBJECT_ID      = 1992-020B
CENTER_NAME    = EARTH
REF_FRAME      = TEME
TIME_SYSTEM    = UTC
MEAN_ELEMENT_THEORY = SGP/SGP4

EPOCH          = 2026-02-24T07:21:32.465664
MEAN_MOTION    = 13.75547757
ECCENTRICITY   = .00282864
INCLINATION    = 82.9344
RA_OF_ASC_NODE = 163.6949
ARG_OF_PERICENTER = 337.5065
MEAN_ANOMALY   = 75.8474

EPHEMERIS_TYPE = 0
CLASSIFICATION_TYPE = U
NORAD_CAT_ID   = 21938
ELEMENT_SET_NO = 999
REV_AT_EPOCH   = 69929
BSTAR          = .75112851E-4
MEAN_MOTION_DOT = .87E-6
MEAN_MOTION_DDOT = 0

CCSDS_OMM_VERS = 2.0
CREATION_DATE  = 
ORIGINATOR     = 

OBJECT_NAME    = USA 81
OBJECT_ID      = 1992-023A
CENTER_NAME    = EARTH
REF_FRAME      = TEME
TIME_SYSTEM    = UTC
MEAN_ELEMENT_THEORY = SGP/SGP4

EPOCH          = 2026-02-24T05:54:22.924224
MEAN_MOTION    = 14.32362926
ECCENTRICITY   = .00027355
INCLINATION    = 85.0109
RA_OF_ASC_NODE = 139.1945
ARG_OF_PERICENTER = 89.3495
MEAN_ANOMALY   = 270.8011

EPHEMERIS_TYPE = 0
CLASSIFICATION_TYPE = U
NORAD_CAT_ID   = 21949
ELEMENT_SET_NO = 999
REV_AT_EPOCH   = 9286
BSTAR          = .6017228E-4
MEAN_MOTION_DOT = .182E-5
MEAN_MOTION_DDOT = 0

CCSDS_OMM_VERS = 2.0
CREATION_DATE  = 
ORIGINATOR     = 

OBJECT_NAME    = COSMOS 2219
OBJECT_ID      = 1992-076A
CENTER_NAME    = EARTH
REF_FRAME      = TEME
TIME_SYSTEM    = UTC
MEAN_ELEMENT_THEORY = SGP/SGP4

EPOCH          = 2026-02-24T07:01:51.185856
MEAN_MOTION    = 14.14083272
ECCENTRICITY   = .00196272
INCLINATION    = 71.0596
RA_OF_ASC_NODE = 46.0729
ARG_OF_PERICENTER = 224.9401
MEAN_ANOMALY   = 135.0134

EPHEMERIS_TYPE = 0
CLASSIFICATION_TYPE = U
NORAD_CAT_ID   = 22219
ELEMENT_SET_NO = 999
REV_AT_EPOCH   = 71648
BSTAR          = .21258587E-3
MEAN_MOTION_DOT = .358E-5
MEAN_MOTION_DDOT = 0

CCSDS_OMM_VERS = 2.0
CREATION_DATE  = 
ORIGINATOR     = 

OBJECT_NAME    = SL-16 R/B
OBJECT_ID      = 1992-076B
CENTER_NAME    = EARTH
REF_FRAME      = TEME
TIME_SYSTEM    = UTC
MEAN_ELEMENT_THEORY = SGP/SGP4

EPOCH          = 2026-02-23T21:02:35.512224
MEAN_MOTION    = 14.16855882
ECCENTRICITY   = .0010939
INCLINATION    = 70.9983
RA_OF_ASC_NODE = 217.4687
ARG_OF_PERICENTER = 121.7327
MEAN_ANOMALY   = 30.0448

EPHEMERIS_TYPE = 0
CLASSIFICATION_TYPE = U
NORAD_CAT_ID   = 22220
ELEMENT_SET_NO = 999
REV_AT_EPOCH   = 71987
BSTAR          = .14346528E-3
MEAN_MOTION_DOT = .24E-5
MEAN_MOTION_DDOT = 0

CCSDS_OMM_VERS = 2.0
CREATION_DATE  = 
ORIGINATOR     = 

OBJECT_NAME    = COSMOS 2221
OBJECT_ID      = 1992-080A
CENTER_NAME    = EARTH
REF_FRAME      = TEME
TIME_SYSTEM    = UTC
MEAN_ELEMENT_THEORY = SGP/SGP4

EPOCH          = 2026-02-24T03:04:00.302592
MEAN_MOTION    = 14.96142852
ECCENTRICITY   = .00129931
INCLINATION    = 82.5031
RA_OF_ASC_NODE = 292.0723
ARG_OF_PERICENTER = 235.6236
MEAN_ANOMALY   = 124.3758

EPHEMERIS_TYPE = 0
CLASSIFICATION_TYPE = U
NORAD_CAT_ID   = 22236
ELEMENT_SET_NO = 999
REV_AT_EPOCH   = 77876
BSTAR          = .14634068E-3
MEAN_MOTION_DOT = .1675E-4
MEAN_MOTION_DDOT = 0

CCSDS_OMM_VERS = 2.0
CREATION_DATE  = 
ORIGINATOR     = 

OBJECT_NAME    = SL-16 R/B
OBJECT_ID      = 1992-093B
CENTER_NAME    = EARTH
REF_FRAME      = TEME
TIME_SYSTEM    = UTC
MEAN_ELEMENT_THEORY = SGP/SGP4

EPOCH          = 2026-02-24T05:47:46.871808
MEAN_MOTION    = 14.15448681
ECCENTRICITY   = .00059147
INCLINATION    = 71.0225
RA_OF_ASC_NODE = 32.4957
ARG_OF_PERICENTER = 308.2161
MEAN_ANOMALY   = 51.8428

EPHEMERIS_TYPE = 0
CLASSIFICATION_TYPE = U
NORAD_CAT_ID   = 22285
ELEMENT_SET_NO = 999
REV_AT_EPOCH   = 71125
BSTAR          = .11525128E-3
MEAN_MOTION_DOT = .177E-5
MEAN_MOTION_DDOT = 0

CCSDS_OMM_VERS = 2.0
CREATION_DATE  = 
ORIGINATOR     = 

OBJECT_NAME    = COSMOS 2228
OBJECT_ID      = 1992-094A
CENTER_NAME    = EARTH
REF_FRAME      = TEME
TIME_SYSTEM    = UTC
MEAN_ELEMENT_THEORY = SGP/SGP4

EPOCH          = 2026-02-24T06:52:53.751072
MEAN_MOTION    = 14.97117448
ECCENTRICITY   = .00177814
INCLINATION    = 82.5147
RA_OF_ASC_NODE = 250.1457
ARG_OF_PERICENTER = 351.7918
MEAN_ANOMALY   = 8.3011

EPHEMERIS_TYPE = 0
CLASSIFICATION_TYPE = U
NORAD_CAT_ID   = 22286
ELEMENT_SET_NO = 999
REV_AT_EPOCH   = 77405
BSTAR          = .20719275E-3
MEAN_MOTION_DOT = .2424E-4
MEAN_MOTION_DDOT = 0

